2025-180B               
1 65260U 25180B   26061.32709697  .00005888  00000+0  32386-3 0  9996
2 65260  97.5099 189.7404 0014719 334.9723  25.0794 15.14359033 29480
FLOCK 4H-22             
1 66725U 25276BM  26068.74659076  .00009034  00000+0  43674-3 0  9996
2 66725  97.4241 143.9598 0003211  42.7881 317.3603 15.18837186 15323
